1 25481U 98053G   19273.12397440 -.00000038  00000-0  37220-4 0  9997
2 25481  45.0086  21.2110 0000983 170.7698 189.3166 14.32829626 98105
1 25481U 98053G   19273.75149610 -.00000027 +00000-0 +41391-4 0  9992
2 25481 045.0086 018.2611 0001032 174.1619 185.9240 14.32829837098192
1 25481U 98053G   19274.44874229 -.00000025  00000-0  41902-4 0  9996
2 25481  45.0087  14.9833 0001084 178.8369 181.2480 14.32830039 98294
1 25481U 98053G   19274.72764038 -.00000009 +00000-0 +47986-4 0  9993
2 25481 045.0087 013.6722 0001116 181.0959 178.9885 14.32830560098330
1 25481U 98053G   19275.49461073  .00000066  00000-0  75231-4 0  9997
2 25481  45.0087  10.0667 0001177 186.2072 173.8760 14.32831007 98444
1 25481U 98053G   19275.70378446 +.00000069 +00000-0 +76074-4 0  9991
2 25481 045.0087 009.0835 0001192 186.4213 173.6619 14.32831143098470
1 25481U 98053G   19276.67992820  .00000070  00000-0  76636-4 0  9992
2 25481  45.0088   4.4947 0001270 191.5303 168.5514 14.32831659 98613
1 25481U 98053G   19277.65607143 +.00000083 +00000-0 +81144-4 0  9996
2 25481 045.0088 359.9059 0001354 196.8139 163.2662 14.32832231098751
1 25481U 98053G   19278.42304088  .00000089  00000-0  83323-4 0  9991
2 25481  45.0088 356.3004 0001420 201.1512 158.9276 14.32832630 98868
1 25481U 98053G   19278.63221422 +.00000101 +00000-0 +87771-4 0  9990
2 25481 045.0088 355.3172 0001431 202.0012 158.0773 14.32832830098898
1 25481U 98053G   19279.67808095  .00000119  00000-0  94167-4 0  9998
2 25481  45.0087 350.4006 0001514 206.6163 153.4606 14.32833488 99040
1 25481U 98053G   19280.65422289 +.00000121 +00000-0 +95102-4 0  9998
2 25481 045.0085 345.8118 0001588 210.8746 149.2007 14.32834027099188
1 25481U 98053G   19281.14229372  .00000118  00000-0  94100-4 0  9994
2 25481  45.0084 343.5173 0001626 213.3903 146.6841 14.32834261 99254
1 25481U 98053G   19281.63036448 +.00000115 +00000-0 +93014-4 0  9998
2 25481 045.0084 341.2229 0001655 215.0145 145.0592 14.32834546099320
1 25481U 98053G   19282.18815951  .00000108  00000-0  90241-4 0  9994
2 25481  45.0083 338.6005 0001700 217.5069 142.5659 14.32834806 99408
1 25481U 98053G   19282.60650581 +.00000101 +00000-0 +87793-4 0  9998
2 25481 045.0082 336.6341 0001713 219.0680 141.0042 14.32835026099469
1 25481U 98053G   19283.37347368  .00000092  00000-0  84604-4 0  9996
2 25481  45.0082 333.0284 0001763 222.5448 137.5262 14.32835431 99578
1 25481U 98053G   19283.58264670 +.00000098 +00000-0 +86721-4 0  9991
2 25481 045.0081 332.0452 0001765 223.1090 136.9618 14.32835601099606
1 25481U 98053G   19284.48906288  .00000099  00000-0  87080-4 0  9999
2 25481  45.0081 327.7840 0001818 226.7144 133.3551 14.32836154 99731
1 25481U 98053G   19284.55878718 +.00000099 +00000-0 +87125-4 0  9993
2 25481 045.0080 327.4562 0001822 226.8998 133.1696 14.32836200099742
